{
    "links": {
        "self": "http://www.neowsapp.com/rest/v1/neo/3831169?api_key=iIulBulltgU6a56xZRHN4H3l9WmuAYTsLGpBGhQ2"
    },
    "id": "3831169",
    "neo_reference_id": "3831169",
    "name": "(2018 RX27)",
    "designation": "2018 RX27",
    "nasa_jpl_url": "http://ssd.jpl.nasa.gov/sbdb.cgi?sstr=3831169",
    "absolute_magnitude_h": 24.617,
    "estimated_diameter": {
        "kilometers": {
            "estimated_diameter_min": 0.0317069871,
            "estimated_diameter_max": 0.0708989786
        },
        "meters": {
            "estimated_diameter_min": 31.7069871496,
            "estimated_diameter_max": 70.8989786282
        },
        "miles": {
            "estimated_diameter_min": 0.0197018023,
            "estimated_diameter_max": 0.0440545692
        },
        "feet": {
            "estimated_diameter_min": 104.0255517198,
            "estimated_diameter_max": 232.6082050424
        }
    },
    "is_potentially_hazardous_asteroid": false,
    "close_approach_data": [
        {
            "close_approach_date": "2018-03-11",
            "close_approach_date_full": "2018-Mar-11 02:10",
            "epoch_date_close_approach": 1520734200000,
            "relative_velocity": {
                "kilometers_per_second": "16.2838139483",
                "kilometers_per_hour": "58621.7302138512",
                "miles_per_hour": "36425.2634209344"
            },
            "miss_distance": {
                "astronomical": "0.4563677707",
                "lunar": "177.5270628023",
                "kilometers": "68271646.433368409",
                "miles": "42422033.9578416842"
            },
            "orbiting_body": "Earth"
        },
        {
            "close_approach_date": "2018-09-14",
            "close_approach_date_full": "2018-Sep-14 00:22",
            "epoch_date_close_approach": 1536884520000,
            "relative_velocity": {
                "kilometers_per_second": "18.4889556558",
                "kilometers_per_hour": "66560.2403607716",
                "miles_per_hour": "41357.9449063917"
            },
            "miss_distance": {
                "astronomical": "0.0253395269",
                "lunar": "9.8570759641",
                "kilometers": "3790739.251047703",
                "miles": "2355456.1466481814"
            },
            "orbiting_body": "Earth"
        }
    ],
    "orbital_data": {
        "orbit_id": "1",
        "orbit_determination_date": "2018-10-04 06:45:00",
        "first_observation_date": "2018-09-15",
        "last_observation_date": "2018-09-16",
        "data_arc_in_days": 1,
        "observations_used": 11,
        "orbit_uncertainty": "9",
        "minimum_orbit_intersection": ".00812996",
        "jupiter_tisserand_invariant": "5.194",
        "epoch_osculation": "2458377.5",
        "eccentricity": ".26490743390838",
        "semi_major_axis": "1.176216410647198",
        "inclination": "32.91830988880253",
        "ascending_node_longitude": "172.1107433414446",
        "orbital_period": "465.939230909707",
        "perihelion_distance": ".864627939581723",
        "perihelion_argument": "107.0943055386607",
        "aphelion_distance": "1.487804881712672",
        "perihelion_time": "2458316.099072690964",
        "mean_anomaly": "47.44037927026688",
        "mean_motion": ".7726329446377167",
        "equinox": "J2000",
        "orbit_class": {
            "orbit_class_type": "APO",
            "orbit_class_description": "Near-Earth asteroid orbits which cross the Earth’s orbit similar to that of 1862 Apollo",
            "orbit_class_range": "a (semi-major axis) > 1.0 AU; q (perihelion) < 1.017 AU"
        }
    },
    "is_sentry_object": false
}